BEIDOU-2 IGSO-1 (C06)   
1 36828U 10036A   26122.76966646 -.00000054  00000+0  00000+0 0  9998
2 36828  54.2940 163.3702 0058449 224.0964 217.0944  1.00286245 57649
BEIDOU-2 G4 (C04)       
1 37210U 10057A   26125.57605075 -.00000104  00000+0  00000+0 0  9991
2 37210   3.5423  69.1848 0005762 214.4215 307.1677  1.00273453 56868
BEIDOU-2 IGSO-2 (C07)   
1 37256U 10068A   26125.35593792 -.00000203  00000+0  00000+0 0  9991
2 37256  47.6434 272.3638 0053699 212.2125 332.2385  1.00297769 56368
BEIDOU-2 IGSO-3 (C08)   
1 37384U 11013A   26122.65036828 -.00000203  00000+0  00000+0 0  9996
2 37384  62.3500  40.5817 0034161 187.9361 334.3867  1.00279445 55206
BEIDOU-2 IGSO-4 (C09)   
1 37763U 11038A   26122.60255640  .00000018  00000+0  00000+0 0  9997
2 37763  54.5893 166.0921 0158776 231.8695 130.9915  1.00255007 54192
BEIDOU-2 IGSO-5 (C10)   
1 37948U 11073A   26124.88358527 -.00000179  00000+0  00000+0 0  9990
2 37948  47.7598 272.0793 0111155 220.8014 141.1105  1.00258955 52706
BEIDOU-2 G5 (C05)       
1 38091U 12008A   26125.48960000  .00000066  00000+0  00000+0 0  9995
2 38091   3.4684  69.9411 0011538 271.3057 117.0725  1.00269859 51943
BEIDOU-2 M3 (C11)       
1 38250U 12018A   26125.23206079 -.00000056  00000+0  00000+0 0  9995
2 38250  55.7954 306.3220 0019617 277.5078  82.2572  1.86230082 95146
BEIDOU-2 M4 (C12)       
1 38251U 12018B   26125.16429302 -.00000056  00000+0  00000+0 0  9994
2 38251  55.6959 305.5420 0010902 281.5465  78.3180  1.86229711 95145
BEIDOU-2 M6 (C14)       
1 38775U 12050B   26122.18937330 -.00000065  00000+0  00000+0 0  9995
2 38775  56.5061  64.4147 0014467 349.5456  10.3888  1.86231059 92452
BEIDOU-2 G6 (C02)       
1 38953U 12059A   26125.49462667 -.00000168  00000+0  00000+0 0  9999
2 38953   4.3146  73.9670 0010808 318.6367  92.8706  1.00274107 49480
BEIDOU-3S IGSO-1S (C31) 
1 40549U 15019A   26123.94608439 -.00000174  00000+0  00000+0 0  9996
2 40549  49.2783 295.9910 0037413 190.3744 170.6992  1.00260467 40631
BEIDOU-3S M2S (C58)     
1 40748U 15037A   26124.83041021 -.00000058  00000+0  00000+0 0  9995
2 40748  54.9099 303.5378 0007402 269.6593  90.2396  1.86232149 73312
BEIDOU-3S M1S (C57)     
1 40749U 15037B   26123.96934392 -.00000064  00000+0  00000+0 0  9998
2 40749  54.9079 303.5558 0004261  54.3067 305.7162  1.86255047 73302
BEIDOU-3S IGSO-2S (C56) 
1 40938U 15053A   26124.84191845 -.00000148  00000+0  00000+0 0  9995
2 40938  49.2912 259.2959 0063747 190.9334 172.2843  1.00270255 38921
BEIDOU-2 IGSO-6 (C13)   
1 41434U 16021A   26124.73080681 -.00000162  00000+0  00000+0 0  9992
2 41434  60.1684  38.4725 0057843 232.6656 309.4749  1.00267681 37040
BEIDOU-2 G7 (C03)       
1 41586U 16037A   26125.49991336 -.00000345  00000+0  00000+0 0  9992
2 41586   1.6153  68.9185 0007636 355.6130  89.3758  1.00274707  6468
BEIDOU-3 M1 (C19)       
1 43001U 17069A   26124.10260039 -.00000050  00000+0  00000+0 0  9991
2 43001  56.6558  64.5356 0011955 318.5085  41.3725  1.86231453 57787
BEIDOU-3 M2 (C20)       
1 43002U 17069B   26124.57819338 -.00000046  00000+0  00000+0 0  9990
2 43002  56.6559  64.5555 0010114 339.8410  20.0929  1.86230814 57784
BEIDOU-3 M7 (C27)       
1 43107U 18003A   26121.63499484 -.00000078  00000+0  00000+0 0  9990
2 43107  54.3702 303.9368 0005392  83.1909 276.8559  1.86227991 56489
BEIDOU-3 M8 (C28)       
1 43108U 18003B   26123.72828859 -.00000068  00000+0  00000+0 0  9994
2 43108  54.3615 303.8460 0002175 282.8111  77.1479  1.86231131 56534
BEIDOU-3 M4 (C22)       
1 43207U 18018A   26125.24479256 -.00000040  00000+0  00000+0 0  9992
2 43207  56.6157  64.5636 0007726   3.5582 356.4241  1.86231496 55941
BEIDOU-3 M3 (C21)       
1 43208U 18018B   26123.16341668 -.00000058  00000+0  00000+0 0  9996
2 43208  56.6134  64.6361 0009825 330.7836  29.1291  1.86231206 55906
BEIDOU-3 M9 (C29)       
1 43245U 18029A   26125.52886015 -.00000053  00000+0  00000+0 0  9996
2 43245  54.2337 301.4396 0000913  85.4860 274.5070  1.86228626 55101
BEIDOU-3 M10 (C30)      
1 43246U 18029B   26124.92648385 -.00000057  00000+0  00000+0 0  9990
2 43246  54.2317 301.4871 0004828  36.4822 323.5321  1.86229385 55074
BEIDOU-2 IGSO-7 (C16)   
1 43539U 18057A   26123.67860174 -.00000046  00000+0  00000+0 0  9997
2 43539  55.2660 163.5842 0103557 236.0074 178.8558  1.00264653 28685
BEIDOU-3 M5 (C23)       
1 43581U 18062A   26124.07681306  .00000040  00000+0  00000+0 0  9996
2 43581  54.0834 183.8039 0004563 289.1563  70.8823  1.86228823 52815
BEIDOU-3 M6 (C24)       
1 43582U 18062B   26120.18134653  .00000046  00000+0  00000+0 0  9999
2 43582  54.0829 183.9256 0004885  20.2168 339.8837  1.86227959 52748
BEIDOU-3 M12 (C26)      
1 43602U 18067A   26123.34150487  .00000046  00000+0  00000+0 0  9991
2 43602  54.1782 182.5611 0007896  33.3485 326.7904  1.86227861 52283
BEIDOU-3 M11 (C25)      
1 43603U 18067B   26123.47643698  .00000045  00000+0  00000+0 0  9996
2 43603  54.1748 182.5202 0004475  19.4157 340.6904  1.86227259 52313
BEIDOU-3 M13 (C32)      
1 43622U 18072A   26123.96847714 -.00000052  00000+0  00000+0 0  9991
2 43622  56.5885  64.1175 0008675 319.8092  40.0983  1.86231246 51832
BEIDOU-3 M14 (C33)      
1 43623U 18072B   26124.37087543 -.00000048  00000+0  00000+0 0  9999
2 43623  56.5906  64.0986 0006817 344.0942  15.8577  1.86231348 51838
BEIDOU-3 M16 (C35)      
1 43647U 18078A   26124.52688197 -.00000060  00000+0  00000+0 0  9994
2 43647  54.1309 301.5159 0007984  39.2430 320.7957  1.86232498 51340
BEIDOU-3 M15 (C34)      
1 43648U 18078B   26122.50840287 -.00000074  00000+0  00000+0 0  9996
2 43648  54.1275 301.5863 0005246  51.3636 308.6637  1.86232339 51329
BEIDOU-3 G1 (C59)       
1 43683U 18085A   26125.50969899 -.00000100  00000+0  00000+0 0  9997
2 43683   2.9671  98.5043 0007567 336.5385 131.7822  1.00273463 27636
BEIDOU-3 M17 (C36)      
1 43706U 18093A   26124.25560287  .00000039  00000+0  00000+0 0  9991
2 43706  54.1671 183.7871 0009060 291.5995  52.0128  1.86228658 50713
BEIDOU-3 M18 (C37)      
1 43707U 18093B   26124.14301252  .00000040  00000+0  00000+0 0  9997
2 43707  54.1677 183.7828 0007225 323.5923  36.4466  1.86226703 50710
BEIDOU-3 IGSO-1 (C38)   
1 44204U 19023A   26120.68081943 -.00000239  00000+0  00000+0 0  9992
2 44204  58.6323  38.1392 0024402 235.3065 306.5734  1.00254513  6730
BEIDOU-2 G8 (C01)       
1 44231U 19027A   26125.63876282 -.00000238  00000+0  00000+0 0  9993
2 44231   1.5507  74.4441 0011133 281.6625 241.8092  1.00276112 25651
BEIDOU-3 IGSO-2 (C39)   
1 44337U 19035A   26125.00223196 -.00000073  00000+0  00000+0 0  9997
2 44337  55.2377 159.2418 0039428 215.2872 328.9066  1.00280508 25235
BEIDOU-3 M24 (C46)      
1 44542U 19061A   26123.67526829  .00000043  00000+0  00000+0 0  9990
2 44542  54.3944 184.2291 0008081   4.9676 355.1289  1.86229129 44962
BEIDOU-3 M23 (C45)      
1 44543U 19061B   26123.37815339  .00000045  00000+0  00000+0 0  9997
2 44543  54.3931 184.2075 0005130 346.2443  86.5306  1.86227528 44961
BEIDOU-3 IGSO-3 (C40)   
1 44709U 19073A   26120.85038409 -.00000212  00000+0  00000+0 0  9996
2 44709  54.8842 281.4069 0042404 188.8195 170.9972  1.00251230 23982
BEIDOU-3 M22 (C44)      
1 44793U 19078A   26125.12531963 -.00000056  00000+0  00000+0 0  9998
2 44793  53.9765 301.3416 0007297  47.0750 312.9678  1.86227440 43849
BEIDOU-3 M21 (C43)      
1 44794U 19078B   26125.26535313 -.00000055  00000+0  00000+0 0  9996
2 44794  53.9489 301.2989 0005125  44.9962 315.0271  1.86227935 43859
BEIDOU-3 M19 (C41)      
1 44864U 19090A   26120.35997937 -.00000069  00000+0  00000+0 0  9992
2 44864  56.5196  64.3701 0019637 295.7809 212.4214  1.86231371 43349
BEIDOU-3 M20 (C42)      
1 44865U 19090B   26123.49145101 -.00000056  00000+0  00000+0 0  9995
2 44865  56.5238  64.3014 0017266 308.4697 228.8264  1.86231627 43381
BEIDOU-3 G2 (C60)       
1 45344U 20017A   26125.49384668 -.00000132  00000+0  00000+0 0  9999
2 45344   2.7793  46.6743 0002951   2.7567  71.7629  1.00271573 22837
BEIDOU-3 G3 (C61)       
1 45807U 20040A   26125.49991336 -.00000345  00000+0  00000+0 0  9991
2 45807   2.3433  67.3303 0004150 339.7409 106.7216  1.00266751 21642
BEIDOU-3 G4 (C62)       
1 56564U 23066A   26125.56989192 -.00000273  00000+0  00000+0 0  9999
2 56564   0.5440 321.6125 0003454 157.5631  89.4953  1.00269713 10968
BEIDOU-3 M28 (C50)      
1 58654U 23207A   26124.26863590 -.00000051  00000+0  00000+0 0  9991
2 58654  55.7159  63.7843 0004427 326.4702  33.4750  1.86229863 16020
BEIDOU-3 M26 (C48)      
1 58655U 23207B   26124.06612778 -.00000053  00000+0  00000+0 0  9992
2 58655  55.7177  63.7775 0004757 306.9613  52.9675  1.86229881 16005
BEIDOU-3 M25 (C47)      
1 61186U 24168B   26125.22861906 -.00000056  00000+0  00000+0 0  9993
2 61186  54.5128 303.7348 0003251 317.0066 219.5182  1.86230388 10986
BEIDOU-3 M27 (C49)      
1 61187U 24168C   26125.02909873 -.00000058  00000+0  00000+0 0  9990
2 61187  54.5084 303.7247 0002495  40.0342 137.7383  1.86230487  8458
